[{"OBJECT_NAME":"SPACEEYE-T1","OBJECT_ID":"2025-052V","EPOCH":"2026-03-09T15:50:33.246528","MEAN_MOTION":15.21501707,"ECCENTRICITY":0.00061242,"INCLINATION":97.4063,"RA_OF_ASC_NODE":322.8058,"ARG_OF_PERICENTER":126.7741,"MEAN_ANOMALY":233.4058,"EPHEMERIS_TYPE":0,"CLASSIFICATION_TYPE":"U","NORAD_CAT_ID":63229,"ELEMENT_SET_NO":999,"REV_AT_EPOCH":5470,"BSTAR":0.00031827215,"MEAN_MOTION_DOT":7.097e-5,"MEAN_MOTION_DDOT":0},{"OBJECT_NAME":"CZ-4 DEB","OBJECT_ID":"2006-046J","EPOCH":"2026-03-09T18:53:15.937728","MEAN_MOTION":15.02015872,"ECCENTRICITY":0.00905092,"INCLINATION":97.813,"RA_OF_ASC_NODE":3.4349,"ARG_OF_PERICENTER":91.2796,"MEAN_ANOMALY":323.9331,"EPHEMERIS_TYPE":0,"CLASSIFICATION_TYPE":"U","NORAD_CAT_ID":35376,"ELEMENT_SET_NO":999,"REV_AT_EPOCH":2538,"BSTAR":0.001704414,"MEAN_MOTION_DOT":0.00024412,"MEAN_MOTION_DDOT":0}]
